[{"OBJECT_NAME":"AUTCUBE 2","OBJECT_ID":"2018-084K","EPOCH":"2026-03-09T11:33:24.036480","MEAN_MOTION":15.09319394,"ECCENTRICITY":0.00096854,"INCLINATION":98.0799,"RA_OF_ASC_NODE":269.364,"ARG_OF_PERICENTER":28.2406,"MEAN_ANOMALY":331.9345,"EPHEMERIS_TYPE":0,"CLASSIFICATION_TYPE":"U","NORAD_CAT_ID":43681,"ELEMENT_SET_NO":999,"REV_AT_EPOCH":40188,"BSTAR":0.00033524122,"MEAN_MOTION_DOT":5.282e-5,"MEAN_MOTION_DDOT":0},{"OBJECT_NAME":"STARLINK-5409","OBJECT_ID":"2022-177AR","EPOCH":"2026-03-09T22:00:01.999584","MEAN_MOTION":15.10109189,"ECCENTRICITY":0.00022502,"INCLINATION":43.0003,"RA_OF_ASC_NODE":118.7951,"ARG_OF_PERICENTER":265.5893,"MEAN_ANOMALY":66.3933,"EPHEMERIS_TYPE":0,"CLASSIFICATION_TYPE":"U","NORAD_CAT_ID":54859,"ELEMENT_SET_NO":999,"REV_AT_EPOCH":577,"BSTAR":0.0015211462,"MEAN_MOTION_DOT":0.00025091,"MEAN_MOTION_DDOT":0}]
